[{"OBJECT_NAME":"STARLINK-31707","OBJECT_ID":"2024-090G","EPOCH":"2026-03-08T09:35:17.251872","MEAN_MOTION":15.27582757,"ECCENTRICITY":0.00018489,"INCLINATION":43.0032,"RA_OF_ASC_NODE":190.709,"ARG_OF_PERICENTER":193.7061,"MEAN_ANOMALY":166.3741,"EPHEMERIS_TYPE":0,"CLASSIFICATION_TYPE":"U","NORAD_CAT_ID":59736,"ELEMENT_SET_NO":999,"REV_AT_EPOCH":10324,"BSTAR":2.113807e-5,"MEAN_MOTION_DOT":3.19e-6,"MEAN_MOTION_DDOT":0},{"OBJECT_NAME":"HERMES-2","OBJECT_ID":"2025-052AK","EPOCH":"2026-03-09T22:17:00.130272","MEAN_MOTION":15.28021069,"ECCENTRICITY":0.00063399,"INCLINATION":97.4004,"RA_OF_ASC_NODE":324.4926,"ARG_OF_PERICENTER":99.416,"MEAN_ANOMALY":260.7796,"EPHEMERIS_TYPE":0,"CLASSIFICATION_TYPE":"U","NORAD_CAT_ID":63243,"ELEMENT_SET_NO":999,"REV_AT_EPOCH":5485,"BSTAR":0.00034839454,"MEAN_MOTION_DOT":9.456e-5,"MEAN_MOTION_DDOT":0}]
